FENGYUN 1C DEB          
1 32180U 99025CUA 26063.99479465  .00000071  00000+0  10146-3 0  9991
2 32180  99.5725 110.4647 0136289 354.4454 121.4403 13.82350796954045
FENGYUN 1C DEB          
1 32181U 99025CUB 26062.28419317  .00007050  00000+0  15284-2 0  9994
2 32181  99.4724 181.9411 0072818 204.2643 186.6844 14.56875239978937
FENGYUN 1C DEB          
1 32183U 99025CUD 26064.10314815  .00001173  00000+0  67909-3 0  9998
2 32183  98.7012 117.6939 0043257 184.7932 175.2831 14.10308678739258
FENGYUN 1C DEB          
1 32184U 99025CUE 26049.38342000  .00207585  00000+0  20372-2 0  9996
2 32184  98.1181 202.4936 0038431 104.8832 255.6686 15.64462753994530
FENGYUN 1C DEB          
1 32185U 99025CUF 26063.11762860  .00109241  00000+0  45108-2 0  9998
2 32185  98.8965 287.4325 0129113 105.7317 255.8195 15.16222800962434
FENGYUN 1C DEB          
1 32186U 99025CUG 26056.91900708  .00000803  00000+0  65982-3 0  9991
2 32186  99.5999 113.1799 0270894   4.8015 175.9966 13.76696057636447
FENGYUN 1C DEB          
1 32187U 99025CUH 26064.15716788  .00000306  00000+0  41796-3 0  9995
2 32187  99.4936 144.5032 0292474 299.5418  87.9819 13.50552022673719
FENGYUN 1C DEB          
1 32191U 99025CUM 26058.39701886  .00002650  00000+0  10874-2 0  9998
2 32191  98.6977 118.9282 0090457 323.9730  35.5374 14.25723753655931
FENGYUN 1C DEB          
1 32192U 99025CUN 26063.56978079  .00000419  00000+0  37403-3 0  9993
2 32192  98.6462 292.8367 0181102 300.9262  57.4201 13.82586288938433
FENGYUN 1C DEB          
1 32197U 99025CUT 26063.70759579  .00001951  00000+0  63370-3 0  9990
2 32197  98.9013 340.0425 0161918 350.5551  38.7411 14.32888498955976
FENGYUN 1C DEB          
1 32198U 99025CUU 26041.14848559  .00003532  00000+0  19626-2 0  9993
2 32198  98.3441 188.6841 0095082 124.2314 236.7911 14.09397708577827
FENGYUN 1C DEB          
1 32200U 99025CUW 26062.08068148  .00001838  00000+0  94521-3 0  9996
2 32200  98.7818 114.9449 0040524  63.6325 296.9001 14.16050646955001
FENGYUN 1C DEB          
1 32203U 99025CUZ 26063.95210311  .00037860  00000+0  51295-3 0  9992
2 32203  97.0083 317.6750 0121566 149.6600 211.1764 15.49210338763672
FENGYUN 1C DEB          
1 32205U 99025CVB 26063.97106308  .00000332  00000+0  19717-3 0  9993
2 32205  98.6809  70.4862 0011976  58.5277 331.2007 14.13973996956603
FENGYUN 1C DEB          
1 32207U 99025CVD 26040.68973707  .00001718  00000+0  54336-3 0  9998
2 32207  99.8640  13.4115 0084654 329.6656 209.0182 14.39779820651555
FENGYUN 1C DEB          
1 32209U 99025CVF 26060.31072340  .00000869  00000+0  10719-2 0  9997
2 32209  99.4260   8.3023 0328142 189.1291 170.3782 13.47437482910343
